[{"OBJECT_NAME":"STARLINK-5241","OBJECT_ID":"2022-141AZ","EPOCH":"2026-03-09T22:51:32.574240","MEAN_MOTION":15.08833711,"ECCENTRICITY":0.0001412,"INCLINATION":53.2197,"RA_OF_ASC_NODE":352.5097,"ARG_OF_PERICENTER":104.364,"MEAN_ANOMALY":255.751,"EPHEMERIS_TYPE":0,"CLASSIFICATION_TYPE":"U","NORAD_CAT_ID":54204,"ELEMENT_SET_NO":999,"REV_AT_EPOCH":18604,"BSTAR":-1.7510616e-5,"MEAN_MOTION_DOT":-5.67e-6,"MEAN_MOTION_DDOT":0},{"OBJECT_NAME":"FALCON 9 DEB","OBJECT_ID":"2021-041BG","EPOCH":"2026-03-09T15:47:07.516032","MEAN_MOTION":15.0585876,"ECCENTRICITY":0.00124165,"INCLINATION":53.0346,"RA_OF_ASC_NODE":200.9185,"ARG_OF_PERICENTER":159.6872,"MEAN_ANOMALY":200.4613,"EPHEMERIS_TYPE":0,"CLASSIFICATION_TYPE":"U","NORAD_CAT_ID":48607,"ELEMENT_SET_NO":999,"REV_AT_EPOCH":26415,"BSTAR":0.00013916149,"MEAN_MOTION_DOT":1.762e-5,"MEAN_MOTION_DDOT":0}]
